{
  "links" : {
    "next" : "https://api.nasa.gov/neo/rest/v1/feed?start_date=2007-09-23&end_date=2007-09-23&detailed=true&api_key=t0TVs3DtDT2H8Oy2Zy8m2eVrNsAVKAexjcZXUckd",
    "prev" : "https://api.nasa.gov/neo/rest/v1/feed?start_date=2007-09-21&end_date=2007-09-21&detailed=true&api_key=t0TVs3DtDT2H8Oy2Zy8m2eVrNsAVKAexjcZXUckd",
    "self" : "https://api.nasa.gov/neo/rest/v1/feed?start_date=2007-09-22&end_date=2007-09-22&detailed=true&api_key=t0TVs3DtDT2H8Oy2Zy8m2eVrNsAVKAexjcZXUckd"
  },
  "element_count" : 5,
  "near_earth_objects" : {
    "2007-09-22" : [ {
      "links" : {
        "self" : "https://api.nasa.gov/neo/rest/v1/neo/2310842?api_key=t0TVs3DtDT2H8Oy2Zy8m2eVrNsAVKAexjcZXUckd"
      },
      "neo_reference_id" : "2310842",
      "name" : "310842 (2003 AK18)",
      "nasa_jpl_url" : "http://ssd.jpl.nasa.gov/sbdb.cgi?sstr=2310842",
      "absolute_magnitude_h" : 19.8,
      "estimated_diameter" : {
        "kilometers" : {
          "estimated_diameter_min" : 0.2914439045,
          "estimated_diameter_max" : 0.6516883822
        },
        "meters" : {
          "estimated_diameter_min" : 291.4439045349,
          "estimated_diameter_max" : 651.6883821679
        },
        "miles" : {
          "estimated_diameter_min" : 0.1810947904,
          "estimated_diameter_max" : 0.4049402617
        },
        "feet" : {
          "estimated_diameter_min" : 956.1808197541,
          "estimated_diameter_max" : 2138.0853117517
        }
      },
      "is_potentially_hazardous_asteroid" : false,
      "close_approach_data" : [ {
        "close_approach_date" : "2007-09-22",
        "epoch_date_close_approach" : 1190444400000,
        "relative_velocity" : {
          "kilometers_per_second" : "16.1555224568",
          "kilometers_per_hour" : "58159.8808443457",
          "miles_per_hour" : "36138.2881835325"
        },
        "miss_distance" : {
          "astronomical" : "0.444998279",
          "lunar" : "173.1043243408",
          "kilometers" : "66570792",
          "miles" : "41365172"
        },
        "orbiting_body" : "Earth"
      } ],
      "orbital_data" : {
        "orbit_id" : "94",
        "orbit_determination_date" : "2017-04-06 09:23:54",
        "orbit_uncertainty" : "0",
        "minimum_orbit_intersection" : ".0568928",
        "jupiter_tisserand_invariant" : "6.687",
        "epoch_osculation" : "2458000.5",
        "eccentricity" : ".3841154369921457",
        "semi_major_axis" : ".8767300905790094",
        "inclination" : "7.402628545302489",
        "ascending_node_longitude" : "301.6386488914373",
        "orbital_period" : "299.8453343058978",
        "perihelion_distance" : ".5399645287120897",
        "perihelion_argument" : "23.8142103996991",
        "aphelion_distance" : "1.213495652445929",
        "perihelion_time" : "2457947.475550421485",
        "mean_anomaly" : "63.66216066844406",
        "mean_motion" : "1.200618981893956",
        "equinox" : "J2000"
      }
    }, {
      "links" : {
        "self" : "https://api.nasa.gov/neo/rest/v1/neo/3385825?api_key=t0TVs3DtDT2H8Oy2Zy8m2eVrNsAVKAexjcZXUckd"
      },
      "neo_reference_id" : "3385825",
      "name" : "(2007 SS1)",
      "nasa_jpl_url" : "http://ssd.jpl.nasa.gov/sbdb.cgi?sstr=3385825",
      "absolute_magnitude_h" : 23.6,
      "estimated_diameter" : {
        "kilometers" : {
          "estimated_diameter_min" : 0.0506471459,
          "estimated_diameter_max" : 0.1132504611
        },
        "meters" : {
          "estimated_diameter_min" : 50.6471458835,
          "estimated_diameter_max" : 113.2504610618
        },
        "miles" : {
          "estimated_diameter_min" : 0.0314706677,
          "estimated_diameter_max" : 0.0703705522
        },
        "feet" : {
          "estimated_diameter_min" : 166.1651821003,
          "estimated_diameter_max" : 371.5566426699
        }
      },
      "is_potentially_hazardous_asteroid" : false,
      "close_approach_data" : [ {
        "close_approach_date" : "2007-09-22",
        "epoch_date_close_approach" : 1190444400000,
        "relative_velocity" : {
          "kilometers_per_second" : "6.7518733695",
          "kilometers_per_hour" : "24306.7441302779",
          "miles_per_hour" : "15103.265540283"
        },
        "miss_distance" : {
          "astronomical" : "0.0466526994",
          "lunar" : "18.147901535",
          "kilometers" : "6979145",
          "miles" : "4336639.5"
        },
        "orbiting_body" : "Earth"
      } ],
      "orbital_data" : {
        "orbit_id" : "18",
        "orbit_determination_date" : "2017-04-06 09:05:56",
        "orbit_uncertainty" : "5",
        "minimum_orbit_intersection" : ".0400445",
        "jupiter_tisserand_invariant" : "3.461",
        "epoch_osculation" : "2458000.5",
        "eccentricity" : ".5327183890052747",
        "semi_major_axis" : "2.202853105901716",
        "inclination" : "3.359951037785766",
        "ascending_node_longitude" : "33.31031059513934",
        "orbital_period" : "1194.199083625502",
        "perihelion_distance" : "1.029352748110488",
        "perihelion_argument" : "327.4987050103438",
        "aphelion_distance" : "3.376353463692944",
        "perihelion_time" : "2457954.315858753858",
        "mean_anomaly" : "13.92254530805268",
        "mean_motion" : ".3014572736959955",
        "equinox" : "J2000"
      }
    }, {
      "links" : {
        "self" : "https://api.nasa.gov/neo/rest/v1/neo/3761549?api_key=t0TVs3DtDT2H8Oy2Zy8m2eVrNsAVKAexjcZXUckd"
      },
      "neo_reference_id" : "3761549",
      "name" : "(2016 UJ31)",
      "nasa_jpl_url" : "http://ssd.jpl.nasa.gov/sbdb.cgi?sstr=3761549",
      "absolute_magnitude_h" : 19.5,
      "estimated_diameter" : {
        "kilometers" : {
          "estimated_diameter_min" : 0.3346223745,
          "estimated_diameter_max" : 0.7482383761
        },
        "meters" : {
          "estimated_diameter_min" : 334.6223744549,
          "estimated_diameter_max" : 748.2383760735
        },
        "miles" : {
          "estimated_diameter_min" : 0.2079246394,
          "estimated_diameter_max" : 0.464933628
        },
        "feet" : {
          "estimated_diameter_min" : 1097.8424710066,
          "estimated_diameter_max" : 2454.8503937571
        }
      },
      "is_potentially_hazardous_asteroid" : true,
      "close_approach_data" : [ {
        "close_approach_date" : "2007-09-22",
        "epoch_date_close_approach" : 1190444400000,
        "relative_velocity" : {
          "kilometers_per_second" : "18.0272671122",
          "kilometers_per_hour" : "64898.161603866",
          "miles_per_hour" : "40325.1938032466"
        },
        "miss_distance" : {
          "astronomical" : "0.172588037",
          "lunar" : "67.1367492676",
          "kilometers" : "25818802",
          "miles" : "16043060"
        },
        "orbiting_body" : "Earth"
      } ],
      "orbital_data" : {
        "orbit_id" : "8",
        "orbit_determination_date" : "2017-04-06 08:22:49",
        "orbit_uncertainty" : "5",
        "minimum_orbit_intersection" : ".012568",
        "jupiter_tisserand_invariant" : "4.386",
        "epoch_osculation" : "2458000.5",
        "eccentricity" : ".3288903204330478",
        "semi_major_axis" : "1.479676359185267",
        "inclination" : "30.28570204548532",
        "ascending_node_longitude" : "348.625850656369",
        "orbital_period" : "657.4285036843145",
        "perihelion_distance" : ".993025127275619",
        "perihelion_argument" : "5.112243223781325",
        "aphelion_distance" : "1.966327591094915",
        "perihelion_time" : "2458313.629728304791",
        "mean_anomaly" : "188.533899035424",
        "mean_motion" : ".5475880616409441",
        "equinox" : "J2000"
      }
    } ]
  }
}